[{"CCSDS_OMM_VERS":"3.0","COMMENT":"GENERATED VIA SPACE-TRACK.ORG API","CREATION_DATE":"2026-03-28T04:18:04","ORIGINATOR":"18 SPCS","OBJECT_NAME":"FENGYUN 1C DEB","OBJECT_ID":"1999-025AQM","CENTER_NAME":"EARTH","REF_FRAME":"TEME","TIME_SYSTEM":"UTC","MEAN_ELEMENT_THEORY":"SGP4","EPOCH":"2026-03-27T20:18:45.845280","MEAN_MOTION":"13.79885571","ECCENTRICITY":"0.01727966","INCLINATION":"99.3656","RA_OF_ASC_NODE":"142.6332","ARG_OF_PERICENTER":"160.6972","MEAN_ANOMALY":"270.2242","EPHEMERIS_TYPE":"0","CLASSIFICATION_TYPE":"U","NORAD_CAT_ID":"30679","ELEMENT_SET_NO":"999","REV_AT_EPOCH":"95969","BSTAR":"0.00058275414000","MEAN_MOTION_DOT":"0.00000632","MEAN_MOTION_DDOT":"0.0000000000000","SEMIMAJOR_AXIS":"7342.430","PERIOD":"104.356","APOAPSIS":"1091.169","PERIAPSIS":"837.420","OBJECT_TYPE":"DEBRIS","RCS_SIZE":"SMALL","COUNTRY_CODE":"PRC","LAUNCH_DATE":"1999-05-10","SITE":"TSC","DECAY_DATE":null,"FILE":"5102610","GP_ID":"317341109","TLE_LINE0":"0 FENGYUN 1C DEB","TLE_LINE1":"1 30679U 99025AQM 26086.84636395  .00000632  00000-0  58275-3 0  9997","TLE_LINE2":"2 30679  99.3656 142.6332 0172797 160.6972 270.2242 13.79885571959691"},{"CCSDS_OMM_VERS":"3.0","COMMENT":"GENERATED VIA SPACE-TRACK.ORG API","CREATION_DATE":"2026-03-27T22:26:21","ORIGINATOR":"18 SPCS","OBJECT_NAME":"FENGYUN 1C DEB","OBJECT_ID":"1999-025AQN","CENTER_NAME":"EARTH","REF_FRAME":"TEME","TIME_SYSTEM":"UTC","MEAN_ELEMENT_THEORY":"SGP4","EPOCH":"2026-03-27T14:08:00.724128","MEAN_MOTION":"13.57054217","ECCENTRICITY":"0.03240330","INCLINATION":"99.6307","RA_OF_ASC_NODE":"132.1095","ARG_OF_PERICENTER":"262.2572","MEAN_ANOMALY":"94.1666","EPHEMERIS_TYPE":"0","CLASSIFICATION_TYPE":"U","NORAD_CAT_ID":"30680","ELEMENT_SET_NO":"999","REV_AT_EPOCH":"93675","BSTAR":"0.00292680000000","MEAN_MOTION_DOT":"0.00002882","MEAN_MOTION_DDOT":"0.0000000000000","SEMIMAJOR_AXIS":"7424.554","PERIOD":"106.112","APOAPSIS":"1286.999","PERIAPSIS":"805.839","OBJECT_TYPE":"DEBRIS","RCS_SIZE":"SMALL","COUNTRY_CODE":"PRC","LAUNCH_DATE":"1999-05-10","SITE":"TSC","DECAY_DATE":null,"FILE":"5101501","GP_ID":"317304678","TLE_LINE0":"0 FENGYUN 1C DEB","TLE_LINE1":"1 30680U 99025AQN 26086.58889727  .00002882  00000-0  29268-2 0  9997","TLE_LINE2":"2 30680  99.6307 132.1095 0324033 262.2572  94.1666 13.57054217936752"},{"CCSDS_OMM_VERS":"3.0","COMMENT":"GENERATED VIA SPACE-TRACK.ORG API","CREATION_DATE":"2012-02-02T12:08:15","ORIGINATOR":"18 SPCS","OBJECT_NAME":"FENGYUN 1C DEB","OBJECT_ID":"1999-025AQP","CENTER_NAME":"EARTH","REF_FRAME":"TEME","TIME_SYSTEM":"UTC","MEAN_ELEMENT_THEORY":"SGP4","EPOCH":"2012-01-30T01:34:22.080576","MEAN_MOTION":"16.08316470","ECCENTRICITY":"0.00625450","INCLINATION":"97.5217","RA_OF_ASC_NODE":"327.2328","ARG_OF_PERICENTER":"280.8649","MEAN_ANOMALY":"78.1739","EPHEMERIS_TYPE":"0","CLASSIFICATION_TYPE":"U","NORAD_CAT_ID":"30681","ELEMENT_SET_NO":"999","REV_AT_EPOCH":"27311","BSTAR":"0.00082605000000","MEAN_MOTION_DOT":"0.00916549","MEAN_MOTION_DDOT":"0.0000024838000","SEMIMAJOR_AXIS":"6629.606","PERIOD":"89.534","APOAPSIS":"292.936","PERIAPSIS":"210.007","OBJECT_TYPE":"DEBRIS","RCS_SIZE":"SMALL","COUNTRY_CODE":"PRC","LAUNCH_DATE":"1999-05-10","SITE":"TSC","DECAY_DATE":"2012-02-01","FILE":"1233105","GP_ID":"87105869","TLE_LINE0":"0 FENGYUN 1C DEB","TLE_LINE1":"1 30681U 99025AQP 12030.06553334  .00916549  24838-5  82605-3 0  9996","TLE_LINE2":"2 30681 097.5217 327.2328 0062545 280.8649 078.1739 16.08316470273112"},{"CCSDS_OMM_VERS":"3.0","COMMENT":"GENERATED VIA SPACE-TRACK.ORG API","CREATION_DATE":"2011-04-28T11:36:43","ORIGINATOR":"18 SPCS","OBJECT_NAME":"FENGYUN 1C DEB","OBJECT_ID":"1999-025AQQ","CENTER_NAME":"EARTH","REF_FRAME":"TEME","TIME_SYSTEM":"UTC","MEAN_ELEMENT_THEORY":"SGP4","EPOCH":"2011-04-27T03:16:03.184607","MEAN_MOTION":"16.18249062","ECCENTRICITY":"0.00220840","INCLINATION":"98.7785","RA_OF_ASC_NODE":"336.0561","ARG_OF_PERICENTER":"241.8596","MEAN_ANOMALY":"118.0295","EPHEMERIS_TYPE":"0","CLASSIFICATION_TYPE":"U","NORAD_CAT_ID":"30682","ELEMENT_SET_NO":"999","REV_AT_EPOCH":"23036","BSTAR":"0.00439290000000","MEAN_MOTION_DOT":"0.07592352","MEAN_MOTION_DDOT":"0.0000000000000","SEMIMAJOR_AXIS":"6602.451","PERIOD":"88.985","APOAPSIS":"238.897","PERIAPSIS":"209.735","OBJECT_TYPE":"DEBRIS","RCS_SIZE":"SMALL","COUNTRY_CODE":"PRC","LAUNCH_DATE":"1999-05-10","SITE":"TSC","DECAY_DATE":"2011-04-26","FILE":"1079860","GP_ID":"82854363","TLE_LINE0":"0 FENGYUN 1C DEB","TLE_LINE1":"1 30682U 99025AQQ 11117.13614797  .07592352  00000-0  43929-2 0  9995","TLE_LINE2":"2 30682 098.7785 336.0561 0022084 241.8596 118.0295 16.18249062230369"},{"CCSDS_OMM_VERS":"3.0","COMMENT":"GENERATED VIA SPACE-TRACK.ORG API","CREATION_DATE":"2026-03-27T22:26:21","ORIGINATOR":"18 SPCS","OBJECT_NAME":"FENGYUN 1C DEB","OBJECT_ID":"1999-025AQR","CENTER_NAME":"EARTH","REF_FRAME":"TEME","TIME_SYSTEM":"UTC","MEAN_ELEMENT_THEORY":"SGP4","EPOCH":"2026-03-27T13:17:36.953952","MEAN_MOTION":"14.00839634","ECCENTRICITY":"0.01366210","INCLINATION":"99.4166","RA_OF_ASC_NODE":"106.2765","ARG_OF_PERICENTER":"298.3658","MEAN_ANOMALY":"215.1188","EPHEMERIS_TYPE":"0","CLASSIFICATION_TYPE":"U","NORAD_CAT_ID":"30683","ELEMENT_SET_NO":"999","REV_AT_EPOCH":"97018","BSTAR":"0.00111650000000","MEAN_MOTION_DOT":"0.00001760","MEAN_MOTION_DDOT":"0.0000000000000","SEMIMAJOR_AXIS":"7269.026","PERIOD":"102.795","APOAPSIS":"990.201","PERIAPSIS":"791.581","OBJECT_TYPE":"DEBRIS","RCS_SIZE":"SMALL","COUNTRY_CODE":"PRC","LAUNCH_DATE":"1999-05-10","SITE":"TSC","DECAY_DATE":null,"FILE":"5101501","GP_ID":"317305179","TLE_LINE0":"0 FENGYUN 1C DEB","TLE_LINE1":"1 30683U 99025AQR 26086.55389993  .00001760  00000-0  11165-2 0  9998","TLE_LINE2":"2 30683  99.4166 106.2765 0136621 298.3658 215.1188 14.00839634970183"},{"CCSDS_OMM_VERS":"3.0","COMMENT":"GENERATED VIA SPACE-TRACK.ORG API","CREATION_DATE":"2026-03-28T11:26:42","ORIGINATOR":"18 SPCS","OBJECT_NAME":"FENGYUN 1C DEB","OBJECT_ID":"1999-025AQS","CENTER_NAME":"EARTH","REF_FRAME":"TEME","TIME_SYSTEM":"UTC","MEAN_ELEMENT_THEORY":"SGP4","EPOCH":"2026-03-28T02:09:13.877280","MEAN_MOTION":"13.67089059","ECCENTRICITY":"0.02337274","INCLINATION":"99.5168","RA_OF_ASC_NODE":"131.9443","ARG_OF_PERICENTER":"359.6826","MEAN_ANOMALY":"0.4136","EPHEMERIS_TYPE":"0","CLASSIFICATION_TYPE":"U","NORAD_CAT_ID":"30684","ELEMENT_SET_NO":"999","REV_AT_EPOCH":"95068","BSTAR":"0.00077849156000","MEAN_MOTION_DOT":"0.00000743","MEAN_MOTION_DDOT":"0.0000000000000","SEMIMAJOR_AXIS":"7388.177","PERIOD":"105.333","APOAPSIS":"1182.724","PERIAPSIS":"837.360","OBJECT_TYPE":"DEBRIS","RCS_SIZE":"SMALL","COUNTRY_CODE":"PRC","LAUNCH_DATE":"1999-05-10","SITE":"TSC","DECAY_DATE":null,"FILE":"5103506","GP_ID":"317395058","TLE_LINE0":"0 FENGYUN 1C DEB","TLE_LINE1":"1 30684U 99025AQS 26087.08974395  .00000743  00000-0  77849-3 0  9996","TLE_LINE2":"2 30684  99.5168 131.9443 0233727 359.6826   0.4136 13.67089059950689"},{"CCSDS_OMM_VERS":"3.0","COMMENT":"GENERATED VIA SPACE-TRACK.ORG API","CREATION_DATE":"2010-05-04T09:32:38","ORIGINATOR":"18 SPCS","OBJECT_NAME":"FENGYUN 1C DEB","OBJECT_ID":"1999-025AQT","CENTER_NAME":"EARTH","REF_FRAME":"TEME","TIME_SYSTEM":"UTC","MEAN_ELEMENT_THEORY":"SGP4","EPOCH":"2010-05-04T09:56:46.245695","MEAN_MOTION":"16.09091857","ECCENTRICITY":"0.00268290","INCLINATION":"98.8111","RA_OF_ASC_NODE":"298.5351","ARG_OF_PERICENTER":"308.8425","MEAN_ANOMALY":"51.0476","EPHEMERIS_TYPE":"0","CLASSIFICATION_TYPE":"U","NORAD_CAT_ID":"30685","ELEMENT_SET_NO":"999","REV_AT_EPOCH":"17840","BSTAR":"0.01110700000000","MEAN_MOTION_DOT":"0.06360292","MEAN_MOTION_DDOT":"0.1474600000000","SEMIMAJOR_AXIS":"6627.476","PERIOD":"89.491","APOAPSIS":"267.122","PERIAPSIS":"231.561","OBJECT_TYPE":"DEBRIS","RCS_SIZE":"SMALL","COUNTRY_CODE":"PRC","LAUNCH_DATE":"1999-05-10","SITE":"TSC","DECAY_DATE":"2010-05-04","FILE":"891152","GP_ID":"77612840","TLE_LINE0":"0 FENGYUN 1C DEB","TLE_LINE1":"1 30685U 99025AQT 10124.41442414  .06360292  14746+0  11107-1 0  9999","TLE_LINE2":"2 30685 098.8111 298.5351 0026829 308.8425 051.0476 16.09091857178401"},{"CCSDS_OMM_VERS":"3.0","COMMENT":"GENERATED VIA SPACE-TRACK.ORG API","CREATION_DATE":"2026-03-28T17:06:41","ORIGINATOR":"18 SPCS","OBJECT_NAME":"FENGYUN 1C DEB","OBJECT_ID":"1999-025AQU","CENTER_NAME":"EARTH","REF_FRAME":"TEME","TIME_SYSTEM":"UTC","MEAN_ELEMENT_THEORY":"SGP4","EPOCH":"2026-03-28T07:17:57.194016","MEAN_MOTION":"14.75231716","ECCENTRICITY":"0.01408810","INCLINATION":"99.0304","RA_OF_ASC_NODE":"298.3137","ARG_OF_PERICENTER":"151.5207","MEAN_ANOMALY":"269.1117","EPHEMERIS_TYPE":"0","CLASSIFICATION_TYPE":"U","NORAD_CAT_ID":"30686","ELEMENT_SET_NO":"999","REV_AT_EPOCH":"1158","BSTAR":"0.00074714000000","MEAN_MOTION_DOT":"0.00005871","MEAN_MOTION_DDOT":"0.0000000000000","SEMIMAJOR_AXIS":"7022.553","PERIOD":"97.612","APOAPSIS":"743.352","PERIAPSIS":"545.483","OBJECT_TYPE":"DEBRIS","RCS_SIZE":"SMALL","COUNTRY_CODE":"PRC","LAUNCH_DATE":"1999-05-10","SITE":"TSC","DECAY_DATE":null,"FILE":"5104317","GP_ID":"317439521","TLE_LINE0":"0 FENGYUN 1C DEB","TLE_LINE1":"1 30686U 99025AQU 26087.30413419  .00005871  00000-0  74714-3 0  9993","TLE_LINE2":"2 30686  99.0304 298.3137 0140881 151.5207 269.1117 14.75231716 11585"}]